CCSDS_OMM_VERS = 2.0
CREATION_DATE  = 
ORIGINATOR     = 

OBJECT_NAME    = STARLINK-35244
OBJECT_ID      = 2025-221G
CENTER_NAME    = EARTH
REF_FRAME      = TEME
TIME_SYSTEM    = UTC
MEAN_ELEMENT_THEORY = SGP/SGP4

EPOCH          = 2025-10-26T11:38:50.948160
MEAN_MOTION    = 15.39617236
ECCENTRICITY   = .0001458
INCLINATION    = 53.1604
RA_OF_ASC_NODE = 354.7642
ARG_OF_PERICENTER = 73.1928
MEAN_ANOMALY   = 286.9237

EPHEMERIS_TYPE = 0
CLASSIFICATION_TYPE = U
NORAD_CAT_ID   = 65829
ELEMENT_SET_NO = 999
REV_AT_EPOCH   = 545
BSTAR          = .13473E-2
MEAN_MOTION_DOT = .53869E-3
MEAN_MOTION_DDOT = 0

CCSDS_OMM_VERS = 2.0
CREATION_DATE  = 
ORIGINATOR     = 

OBJECT_NAME    = STARLINK-35368
OBJECT_ID      = 2025-221H
CENTER_NAME    = EARTH
REF_FRAME      = TEME
TIME_SYSTEM    = UTC
MEAN_ELEMENT_THEORY = SGP/SGP4

EPOCH          = 2025-10-26T11:29:20.824800
MEAN_MOTION    = 15.49321702
ECCENTRICITY   = .0000959
INCLINATION    = 53.1597
RA_OF_ASC_NODE = 353.2653
ARG_OF_PERICENTER = 73.0608
MEAN_ANOMALY   = 287.0506

EPHEMERIS_TYPE = 0
CLASSIFICATION_TYPE = U
NORAD_CAT_ID   = 65830
ELEMENT_SET_NO = 999
REV_AT_EPOCH   = 547
BSTAR          = .14598E-2
MEAN_MOTION_DOT = .81627E-3
MEAN_MOTION_DDOT = 0

CCSDS_OMM_VERS = 2.0
CREATION_DATE  = 
ORIGINATOR     = 

OBJECT_NAME    = STARLINK-35337
OBJECT_ID      = 2025-221J
CENTER_NAME    = EARTH
REF_FRAME      = TEME
TIME_SYSTEM    = UTC
MEAN_ELEMENT_THEORY = SGP/SGP4

EPOCH          = 2025-10-26T13:03:13.802400
MEAN_MOTION    = 15.49317005
ECCENTRICITY   = .000117
INCLINATION    = 53.1599
RA_OF_ASC_NODE = 352.9627
ARG_OF_PERICENTER = 86.1150
MEAN_ANOMALY   = 273.9993

EPHEMERIS_TYPE = 0
CLASSIFICATION_TYPE = U
NORAD_CAT_ID   = 65831
ELEMENT_SET_NO = 999
REV_AT_EPOCH   = 552
BSTAR          = .78091E-3
MEAN_MOTION_DOT = .43235E-3
MEAN_MOTION_DDOT = 0

CCSDS_OMM_VERS = 2.0
CREATION_DATE  = 
ORIGINATOR     = 

OBJECT_NAME    = STARLINK-35277
OBJECT_ID      = 2025-221K
CENTER_NAME    = EARTH
REF_FRAME      = TEME
TIME_SYSTEM    = UTC
MEAN_ELEMENT_THEORY = SGP/SGP4

EPOCH          = 2025-10-26T11:29:50.519616
MEAN_MOTION    = 15.49329871
ECCENTRICITY   = .0001356
INCLINATION    = 53.1597
RA_OF_ASC_NODE = 353.2688
ARG_OF_PERICENTER = 100.3723
MEAN_ANOMALY   = 259.7439

EPHEMERIS_TYPE = 0
CLASSIFICATION_TYPE = U
NORAD_CAT_ID   = 65832
ELEMENT_SET_NO = 999
REV_AT_EPOCH   = 551
BSTAR          = .12708E-2
MEAN_MOTION_DOT = .70926E-3
MEAN_MOTION_DDOT = 0

CCSDS_OMM_VERS = 2.0
CREATION_DATE  = 
ORIGINATOR     = 

OBJECT_NAME    = STARLINK-35345
OBJECT_ID      = 2025-221L
CENTER_NAME    = EARTH
REF_FRAME      = TEME
TIME_SYSTEM    = UTC
MEAN_ELEMENT_THEORY = SGP/SGP4

EPOCH          = 2025-10-26T11:28:51.015936
MEAN_MOTION    = 15.49339356
ECCENTRICITY   = .0000901
INCLINATION    = 53.1598
RA_OF_ASC_NODE = 353.2627
ARG_OF_PERICENTER = 95.0219
MEAN_ANOMALY   = 265.0893

EPHEMERIS_TYPE = 0
CLASSIFICATION_TYPE = U
NORAD_CAT_ID   = 65833
ELEMENT_SET_NO = 999
REV_AT_EPOCH   = 551
BSTAR          = .13885E-2
MEAN_MOTION_DOT = .77628E-3
MEAN_MOTION_DDOT = 0

CCSDS_OMM_VERS = 2.0
CREATION_DATE  = 
ORIGINATOR     = 

OBJECT_NAME    = STARLINK-35320
OBJECT_ID      = 2025-221M
CENTER_NAME    = EARTH
REF_FRAME      = TEME
TIME_SYSTEM    = UTC
MEAN_ELEMENT_THEORY = SGP/SGP4

EPOCH          = 2025-10-26T13:00:45.527904
MEAN_MOTION    = 15.49329572
ECCENTRICITY   = .0001376
INCLINATION    = 53.1596
RA_OF_ASC_NODE = 352.9507
ARG_OF_PERICENTER = 75.9637
MEAN_ANOMALY   = 284.1524

EPHEMERIS_TYPE = 0
CLASSIFICATION_TYPE = U
NORAD_CAT_ID   = 65834
ELEMENT_SET_NO = 999
REV_AT_EPOCH   = 417
BSTAR          = .14267E-2
MEAN_MOTION_DOT = .79769E-3
MEAN_MOTION_DDOT = 0

CCSDS_OMM_VERS = 2.0
CREATION_DATE  = 
ORIGINATOR     = 

OBJECT_NAME    = STARLINK-35349
OBJECT_ID      = 2025-221N
CENTER_NAME    = EARTH
REF_FRAME      = TEME
TIME_SYSTEM    = UTC
MEAN_ELEMENT_THEORY = SGP/SGP4

EPOCH          = 2025-10-26T13:01:15.348000
MEAN_MOTION    = 15.49319825
ECCENTRICITY   = .0002082
INCLINATION    = 53.1597
RA_OF_ASC_NODE = 352.9518
ARG_OF_PERICENTER = 68.0978
MEAN_ANOMALY   = 292.0252

EPHEMERIS_TYPE = 0
CLASSIFICATION_TYPE = U
NORAD_CAT_ID   = 65835
ELEMENT_SET_NO = 999
REV_AT_EPOCH   = 417
BSTAR          = .1372E-2
MEAN_MOTION_DOT = .76643E-3
MEAN_MOTION_DDOT = 0

CCSDS_OMM_VERS = 2.0
CREATION_DATE  = 
ORIGINATOR     = 

OBJECT_NAME    = STARLINK-35356
OBJECT_ID      = 2025-221P
CENTER_NAME    = EARTH
REF_FRAME      = TEME
TIME_SYSTEM    = UTC
MEAN_ELEMENT_THEORY = SGP/SGP4

EPOCH          = 2025-10-26T13:00:15.977376
MEAN_MOTION    = 15.49320614
ECCENTRICITY   = .0001821
INCLINATION    = 53.1597
RA_OF_ASC_NODE = 352.9468
ARG_OF_PERICENTER = 61.4351
MEAN_ANOMALY   = 298.6841

EPHEMERIS_TYPE = 0
CLASSIFICATION_TYPE = U
NORAD_CAT_ID   = 65836
ELEMENT_SET_NO = 999
REV_AT_EPOCH   = 417
BSTAR          = .15119E-2
MEAN_MOTION_DOT = .84587E-3
MEAN_MOTION_DDOT = 0

CCSDS_OMM_VERS = 2.0
CREATION_DATE  = 
ORIGINATOR     = 

OBJECT_NAME    = STARLINK-35314
OBJECT_ID      = 2025-221Q
CENTER_NAME    = EARTH
REF_FRAME      = TEME
TIME_SYSTEM    = UTC
MEAN_ELEMENT_THEORY = SGP/SGP4

EPOCH          = 2025-10-26T12:58:46.943040
MEAN_MOTION    = 15.49313639
ECCENTRICITY   = .0001993
INCLINATION    = 53.1597
RA_OF_ASC_NODE = 352.9412
ARG_OF_PERICENTER = 55.7031
MEAN_ANOMALY   = 304.4167

EPHEMERIS_TYPE = 0
CLASSIFICATION_TYPE = U
NORAD_CAT_ID   = 65837
ELEMENT_SET_NO = 999
REV_AT_EPOCH   = 417
BSTAR          = .76597E-3
MEAN_MOTION_DOT = .42391E-3
MEAN_MOTION_DDOT = 0

CCSDS_OMM_VERS = 2.0
CREATION_DATE  = 
ORIGINATOR     = 

OBJECT_NAME    = STARLINK-35324
OBJECT_ID      = 2025-221R
CENTER_NAME    = EARTH
REF_FRAME      = TEME
TIME_SYSTEM    = UTC
MEAN_ELEMENT_THEORY = SGP/SGP4

EPOCH          = 2025-10-26T12:59:16.645632
MEAN_MOTION    = 15.49319967
ECCENTRICITY   = .0002026
INCLINATION    = 53.1597
RA_OF_ASC_NODE = 352.9432
ARG_OF_PERICENTER = 54.5054
MEAN_ANOMALY   = 305.6144

EPHEMERIS_TYPE = 0
CLASSIFICATION_TYPE = U
NORAD_CAT_ID   = 65838
ELEMENT_SET_NO = 999
REV_AT_EPOCH   = 417
BSTAR          = .12298E-2
MEAN_MOTION_DOT = .68578E-3
MEAN_MOTION_DDOT = 0

CCSDS_OMM_VERS = 2.0
CREATION_DATE  = 
ORIGINATOR     = 

OBJECT_NAME    = STARLINK-35102
OBJECT_ID      = 2025-221S
CENTER_NAME    = EARTH
REF_FRAME      = TEME
TIME_SYSTEM    = UTC
MEAN_ELEMENT_THEORY = SGP/SGP4

EPOCH          = 2025-10-26T12:58:17.228352
MEAN_MOTION    = 15.49320994
ECCENTRICITY   = .0001689
INCLINATION    = 53.1597
RA_OF_ASC_NODE = 352.9375
ARG_OF_PERICENTER = 67.1811
MEAN_ANOMALY   = 292.9376

EPHEMERIS_TYPE = 0
CLASSIFICATION_TYPE = U
NORAD_CAT_ID   = 65839
ELEMENT_SET_NO = 999
REV_AT_EPOCH   = 417
BSTAR          = .13293E-2
MEAN_MOTION_DOT = .74222E-3
MEAN_MOTION_DDOT = 0

CCSDS_OMM_VERS = 2.0
CREATION_DATE  = 
ORIGINATOR     = 

OBJECT_NAME    = STARLINK-35364
OBJECT_ID      = 2025-221T
CENTER_NAME    = EARTH
REF_FRAME      = TEME
TIME_SYSTEM    = UTC
MEAN_ELEMENT_THEORY = SGP/SGP4

EPOCH          = 2025-10-26T12:57:47.479968
MEAN_MOTION    = 15.49326686
ECCENTRICITY   = .000156
INCLINATION    = 53.1598
RA_OF_ASC_NODE = 352.9356
ARG_OF_PERICENTER = 60.4630
MEAN_ANOMALY   = 299.6535

EPHEMERIS_TYPE = 0
CLASSIFICATION_TYPE = U
NORAD_CAT_ID   = 65840
ELEMENT_SET_NO = 999
REV_AT_EPOCH   = 417
BSTAR          = .15146E-2
MEAN_MOTION_DOT = .84758E-3
MEAN_MOTION_DDOT = 0

